[
    {
        "province_id": 1,
        "province": "Bali",
        "city": [
            {
                "city_id": 17,
                "province": "Bali",
                "province_id": "1",
                "type": "Kabupaten",
                "city_name": "Badung",
                "postal_code": 80351
            },
            {
                "city_id": 32,
                "province": "Bali",
                "province_id": "1",
                "type": "Kabupaten",
                "city_name": "Bangli",
                "postal_code": 80619
            },
            {
                "city_id": 94,
                "province": "Bali",
                "province_id": "1",
                "type": "Kabupaten",
                "city_name": "Buleleng",
                "postal_code": 81111
            },
            {
                "city_id": 114,
                "province": "Bali",
                "province_id": "1",
                "type": "Kota",
                "city_name": "Denpasar",
                "postal_code": 80227
            },
            {
                "city_id": 128,
                "province": "Bali",
                "province_id": "1",
                "type": "Kabupaten",
                "city_name": "Gianyar",
                "postal_code": 80519
            },
            {
                "city_id": 161,
                "province": "Bali",
                "province_id": "1",
                "type": "Kabupaten",
                "city_name": "Jembrana",
                "postal_code": 82251
            },
            {
                "city_id": 170,
                "province": "Bali",
                "province_id": "1",
                "type": "Kabupaten",
                "city_name": "Karangasem",
                "postal_code": 80819
            },
            {
                "city_id": 197,
                "province": "Bali",
                "province_id": "1",
                "type": "Kabupaten",
                "city_name": "Klungkung",
                "postal_code": 80719
            },
            {
                "city_id": 447,
                "province": "Bali",
                "province_id": "1",
                "type": "Kabupaten",
                "city_name": "Tabanan",
                "postal_code": 82119
            }
        ]
    },
    {
        "province_id": 2,
        "province": "Bangka Belitung",
        "city": [
            {
                "city_id": 27,
                "province": "Bangka Belitung",
                "province_id": "2",
                "type": "Kabupaten",
                "city_name": "Bangka",
                "postal_code": 33212
            },
            {
                "city_id": 28,
                "province": "Bangka Belitung",
                "province_id": "2",
                "type": "Kabupaten",
                "city_name": "Bangka Barat",
                "postal_code": 33315
            },
            {
                "city_id": 29,
                "province": "Bangka Belitung",
                "province_id": "2",
                "type": "Kabupaten",
                "city_name": "Bangka Selatan",
                "postal_code": 33719
            },
            {
                "city_id": 30,
                "province": "Bangka Belitung",
                "province_id": "2",
                "type": "Kabupaten",
                "city_name": "Bangka Tengah",
                "postal_code": 33613
            },
            {
                "city_id": 56,
                "province": "Bangka Belitung",
                "province_id": "2",
                "type": "Kabupaten",
                "city_name": "Belitung",
                "postal_code": 33419
            },
            {
                "city_id": 57,
                "province": "Bangka Belitung",
                "province_id": "2",
                "type": "Kabupaten",
                "city_name": "Belitung Timur",
                "postal_code": 33519
            },
            {
                "city_id": 334,
                "province": "Bangka Belitung",
                "province_id": "2",
                "type": "Kota",
                "city_name": "Pangkal Pinang",
                "postal_code": 33115
            }
        ]
    },
    {
        "province_id": 3,
        "province": "Banten",
        "city": [
            {
                "city_id": 106,
                "province": "Banten",
                "province_id": "3",
                "type": "Kota",
                "city_name": "Cilegon",
                "postal_code": 42417
            },
            {
                "city_id": 232,
                "province": "Banten",
                "province_id": "3",
                "type": "Kabupaten",
                "city_name": "Lebak",
                "postal_code": 42319
            },
            {
                "city_id": 331,
                "province": "Banten",
                "province_id": "3",
                "type": "Kabupaten",
                "city_name": "Pandeglang",
                "postal_code": 42212
            },
            {
                "city_id": 402,
                "province": "Banten",
                "province_id": "3",
                "type": "Kabupaten",
                "city_name": "Serang",
                "postal_code": 42182
            },
            {
                "city_id": 403,
                "province": "Banten",
                "province_id": "3",
                "type": "Kota",
                "city_name": "Serang",
                "postal_code": 42111
            },
            {
                "city_id": 455,
                "province": "Banten",
                "province_id": "3",
                "type": "Kabupaten",
                "city_name": "Tangerang",
                "postal_code": 15914
            },
            {
                "city_id": 456,
                "province": "Banten",
                "province_id": "3",
                "type": "Kota",
                "city_name": "Tangerang",
                "postal_code": 15111
            },
            {
                "city_id": 457,
                "province": "Banten",
                "province_id": "3",
                "type": "Kota",
                "city_name": "Tangerang Selatan",
                "postal_code": 15332
            }
        ]
    },
    {
        "province_id": 4,
        "province": "Bengkulu",
        "city": [
            {
                "city_id": 62,
                "province": "Bengkulu",
                "province_id": "4",
                "type": "Kota",
                "city_name": "Bengkulu",
                "postal_code": 38229
            },
            {
                "city_id": 63,
                "province": "Bengkulu",
                "province_id": "4",
                "type": "Kabupaten",
                "city_name": "Bengkulu Selatan",
                "postal_code": 38519
            },
            {
                "city_id": 64,
                "province": "Bengkulu",
                "province_id": "4",
                "type": "Kabupaten",
                "city_name": "Bengkulu Tengah",
                "postal_code": 38319
            },
            {
                "city_id": 65,
                "province": "Bengkulu",
                "province_id": "4",
                "type": "Kabupaten",
                "city_name": "Bengkulu Utara",
                "postal_code": 38619
            },
            {
                "city_id": 175,
                "province": "Bengkulu",
                "province_id": "4",
                "type": "Kabupaten",
                "city_name": "Kaur",
                "postal_code": 38911
            },
            {
                "city_id": 183,
                "province": "Bengkulu",
                "province_id": "4",
                "type": "Kabupaten",
                "city_name": "Kepahiang",
                "postal_code": 39319
            },
            {
                "city_id": 233,
                "province": "Bengkulu",
                "province_id": "4",
                "type": "Kabupaten",
                "city_name": "Lebong",
                "postal_code": 39264
            },
            {
                "city_id": 294,
                "province": "Bengkulu",
                "province_id": "4",
                "type": "Kabupaten",
                "city_name": "Muko Muko",
                "postal_code": 38715
            },
            {
                "city_id": 379,
                "province": "Bengkulu",
                "province_id": "4",
                "type": "Kabupaten",
                "city_name": "Rejang Lebong",
                "postal_code": 39112
            },
            {
                "city_id": 397,
                "province": "Bengkulu",
                "province_id": "4",
                "type": "Kabupaten",
                "city_name": "Seluma",
                "postal_code": 38811
            }
        ]
    },
    {
        "province_id": 5,
        "province": "DI Yogyakarta",
        "city": [
            {
                "city_id": 39,
                "province": "DI Yogyakarta",
                "province_id": "5",
                "type": "Kabupaten",
                "city_name": "Bantul",
                "postal_code": 55715
            },
            {
                "city_id": 135,
                "province": "DI Yogyakarta",
                "province_id": "5",
                "type": "Kabupaten",
                "city_name": "Gunung Kidul",
                "postal_code": 55812
            },
            {
                "city_id": 210,
                "province": "DI Yogyakarta",
                "province_id": "5",
                "type": "Kabupaten",
                "city_name": "Kulon Progo",
                "postal_code": 55611
            },
            {
                "city_id": 419,
                "province": "DI Yogyakarta",
                "province_id": "5",
                "type": "Kabupaten",
                "city_name": "Sleman",
                "postal_code": 55513
            },
            {
                "city_id": 501,
                "province": "DI Yogyakarta",
                "province_id": "5",
                "type": "Kota",
                "city_name": "Yogyakarta",
                "postal_code": 55111
            }
        ]
    },
    {
        "province_id": 6,
        "province": "DKI Jakarta",
        "city": [
            {
                "city_id": 151,
                "province": "DKI Jakarta",
                "province_id": "6",
                "type": "Kota",
                "city_name": "Jakarta Barat",
                "postal_code": 11220
            },
            {
                "city_id": 152,
                "province": "DKI Jakarta",
                "province_id": "6",
                "type": "Kota",
                "city_name": "Jakarta Pusat",
                "postal_code": 10540
            },
            {
                "city_id": 153,
                "province": "DKI Jakarta",
                "province_id": "6",
                "type": "Kota",
                "city_name": "Jakarta Selatan",
                "postal_code": 12230
            },
            {
                "city_id": 154,
                "province": "DKI Jakarta",
                "province_id": "6",
                "type": "Kota",
                "city_name": "Jakarta Timur",
                "postal_code": 13330
            },
            {
                "city_id": 155,
                "province": "DKI Jakarta",
                "province_id": "6",
                "type": "Kota",
                "city_name": "Jakarta Utara",
                "postal_code": 14140
            },
            {
                "city_id": 189,
                "province": "DKI Jakarta",
                "province_id": "6",
                "type": "Kabupaten",
                "city_name": "Kepulauan Seribu",
                "postal_code": 14550
            }
        ]
    },
    {
        "province_id": 7,
        "province": "Gorontalo",
        "city": [
            {
                "city_id": 77,
                "province": "Gorontalo",
                "province_id": "7",
                "type": "Kabupaten",
                "city_name": "Boalemo",
                "postal_code": 96319
            },
            {
                "city_id": 88,
                "province": "Gorontalo",
                "province_id": "7",
                "type": "Kabupaten",
                "city_name": "Bone Bolango",
                "postal_code": 96511
            },
            {
                "city_id": 129,
                "province": "Gorontalo",
                "province_id": "7",
                "type": "Kabupaten",
                "city_name": "Gorontalo",
                "postal_code": 96218
            },
            {
                "city_id": 130,
                "province": "Gorontalo",
                "province_id": "7",
                "type": "Kota",
                "city_name": "Gorontalo",
                "postal_code": 96115
            },
            {
                "city_id": 131,
                "province": "Gorontalo",
                "province_id": "7",
                "type": "Kabupaten",
                "city_name": "Gorontalo Utara",
                "postal_code": 96611
            },
            {
                "city_id": 361,
                "province": "Gorontalo",
                "province_id": "7",
                "type": "Kabupaten",
                "city_name": "Pohuwato",
                "postal_code": 96419
            }
        ]
    },
    {
        "province_id": 8,
        "province": "Jambi",
        "city": [
            {
                "city_id": 50,
                "province": "Jambi",
                "province_id": "8",
                "type": "Kabupaten",
                "city_name": "Batang Hari",
                "postal_code": 36613
            },
            {
                "city_id": 97,
                "province": "Jambi",
                "province_id": "8",
                "type": "Kabupaten",
                "city_name": "Bungo",
                "postal_code": 37216
            },
            {
                "city_id": 156,
                "province": "Jambi",
                "province_id": "8",
                "type": "Kota",
                "city_name": "Jambi",
                "postal_code": 36111
            },
            {
                "city_id": 194,
                "province": "Jambi",
                "province_id": "8",
                "type": "Kabupaten",
                "city_name": "Kerinci",
                "postal_code": 37167
            },
            {
                "city_id": 280,
                "province": "Jambi",
                "province_id": "8",
                "type": "Kabupaten",
                "city_name": "Merangin",
                "postal_code": 37319
            },
            {
                "city_id": 293,
                "province": "Jambi",
                "province_id": "8",
                "type": "Kabupaten",
                "city_name": "Muaro Jambi",
                "postal_code": 36311
            },
            {
                "city_id": 393,
                "province": "Jambi",
                "province_id": "8",
                "type": "Kabupaten",
                "city_name": "Sarolangun",
                "postal_code": 37419
            },
            {
                "city_id": 442,
                "province": "Jambi",
                "province_id": "8",
                "type": "Kota",
                "city_name": "Sungaipenuh",
                "postal_code": 37113
            },
            {
                "city_id": 460,
                "province": "Jambi",
                "province_id": "8",
                "type": "Kabupaten",
                "city_name": "Tanjung Jabung Barat",
                "postal_code": 36513
            },
            {
                "city_id": 461,
                "province": "Jambi",
                "province_id": "8",
                "type": "Kabupaten",
                "city_name": "Tanjung Jabung Timur",
                "postal_code": 36719
            },
            {
                "city_id": 471,
                "province": "Jambi",
                "province_id": "8",
                "type": "Kabupaten",
                "city_name": "Tebo",
                "postal_code": 37519
            }
        ]
    },
    {
        "province_id": 9,
        "province": "Jawa Barat",
        "city": [
            {
                "city_id": 22,
                "province": "Jawa Barat",
                "province_id": "9",
                "type": "Kabupaten",
                "city_name": "Bandung",
                "postal_code": 40311
            },
            {
                "city_id": 23,
                "province": "Jawa Barat",
                "province_id": "9",
                "type": "Kota",
                "city_name": "Bandung",
                "postal_code": 40111
            },
            {
                "city_id": 24,
                "province": "Jawa Barat",
                "province_id": "9",
                "type": "Kabupaten",
                "city_name": "Bandung Barat",
                "postal_code": 40721
            },
            {
                "city_id": 34,
                "province": "Jawa Barat",
                "province_id": "9",
                "type": "Kota",
                "city_name": "Banjar",
                "postal_code": 46311
            },
            {
                "city_id": 54,
                "province": "Jawa Barat",
                "province_id": "9",
                "type": "Kabupaten",
                "city_name": "Bekasi",
                "postal_code": 17837
            },
            {
                "city_id": 55,
                "province": "Jawa Barat",
                "province_id": "9",
                "type": "Kota",
                "city_name": "Bekasi",
                "postal_code": 17121
            },
            {
                "city_id": 78,
                "province": "Jawa Barat",
                "province_id": "9",
                "type": "Kabupaten",
                "city_name": "Bogor",
                "postal_code": 16911
            },
            {
                "city_id": 79,
                "province": "Jawa Barat",
                "province_id": "9",
                "type": "Kota",
                "city_name": "Bogor",
                "postal_code": 16119
            },
            {
                "city_id": 103,
                "province": "Jawa Barat",
                "province_id": "9",
                "type": "Kabupaten",
                "city_name": "Ciamis",
                "postal_code": 46211
            },
            {
                "city_id": 104,
                "province": "Jawa Barat",
                "province_id": "9",
                "type": "Kabupaten",
                "city_name": "Cianjur",
                "postal_code": 43217
            },
            {
                "city_id": 107,
                "province": "Jawa Barat",
                "province_id": "9",
                "type": "Kota",
                "city_name": "Cimahi",
                "postal_code": 40512
            },
            {
                "city_id": 108,
                "province": "Jawa Barat",
                "province_id": "9",
                "type": "Kabupaten",
                "city_name": "Cirebon",
                "postal_code": 45611
            },
            {
                "city_id": 109,
                "province": "Jawa Barat",
                "province_id": "9",
                "type": "Kota",
                "city_name": "Cirebon",
                "postal_code": 45116
            },
            {
                "city_id": 115,
                "province": "Jawa Barat",
                "province_id": "9",
                "type": "Kota",
                "city_name": "Depok",
                "postal_code": 16416
            },
            {
                "city_id": 126,
                "province": "Jawa Barat",
                "province_id": "9",
                "type": "Kabupaten",
                "city_name": "Garut",
                "postal_code": 44126
            },
            {
                "city_id": 149,
                "province": "Jawa Barat",
                "province_id": "9",
                "type": "Kabupaten",
                "city_name": "Indramayu",
                "postal_code": 45214
            },
            {
                "city_id": 171,
                "province": "Jawa Barat",
                "province_id": "9",
                "type": "Kabupaten",
                "city_name": "Karawang",
                "postal_code": 41311
            },
            {
                "city_id": 211,
                "province": "Jawa Barat",
                "province_id": "9",
                "type": "Kabupaten",
                "city_name": "Kuningan",
                "postal_code": 45511
            },
            {
                "city_id": 252,
                "province": "Jawa Barat",
                "province_id": "9",
                "type": "Kabupaten",
                "city_name": "Majalengka",
                "postal_code": 45412
            },
            {
                "city_id": 332,
                "province": "Jawa Barat",
                "province_id": "9",
                "type": "Kabupaten",
                "city_name": "Pangandaran",
                "postal_code": 46511
            },
            {
                "city_id": 376,
                "province": "Jawa Barat",
                "province_id": "9",
                "type": "Kabupaten",
                "city_name": "Purwakarta",
                "postal_code": 41119
            },
            {
                "city_id": 428,
                "province": "Jawa Barat",
                "province_id": "9",
                "type": "Kabupaten",
                "city_name": "Subang",
                "postal_code": 41215
            },
            {
                "city_id": 430,
                "province": "Jawa Barat",
                "province_id": "9",
                "type": "Kabupaten",
                "city_name": "Sukabumi",
                "postal_code": 43311
            },
            {
                "city_id": 431,
                "province": "Jawa Barat",
                "province_id": "9",
                "type": "Kota",
                "city_name": "Sukabumi",
                "postal_code": 43114
            },
            {
                "city_id": 440,
                "province": "Jawa Barat",
                "province_id": "9",
                "type": "Kabupaten",
                "city_name": "Sumedang",
                "postal_code": 45326
            },
            {
                "city_id": 468,
                "province": "Jawa Barat",
                "province_id": "9",
                "type": "Kabupaten",
                "city_name": "Tasikmalaya",
                "postal_code": 46411
            },
            {
                "city_id": 469,
                "province": "Jawa Barat",
                "province_id": "9",
                "type": "Kota",
                "city_name": "Tasikmalaya",
                "postal_code": 46116
            }
        ]
    },
    {
        "province_id": 10,
        "province": "Jawa Tengah",
        "city": [
            {
                "city_id": 37,
                "province": "Jawa Tengah",
                "province_id": "10",
                "type": "Kabupaten",
                "city_name": "Banjarnegara",
                "postal_code": 53419
            },
            {
                "city_id": 41,
                "province": "Jawa Tengah",
                "province_id": "10",
                "type": "Kabupaten",
                "city_name": "Banyumas",
                "postal_code": 53114
            },
            {
                "city_id": 49,
                "province": "Jawa Tengah",
                "province_id": "10",
                "type": "Kabupaten",
                "city_name": "Batang",
                "postal_code": 51211
            },
            {
                "city_id": 76,
                "province": "Jawa Tengah",
                "province_id": "10",
                "type": "Kabupaten",
                "city_name": "Blora",
                "postal_code": 58219
            },
            {
                "city_id": 91,
                "province": "Jawa Tengah",
                "province_id": "10",
                "type": "Kabupaten",
                "city_name": "Boyolali",
                "postal_code": 57312
            },
            {
                "city_id": 92,
                "province": "Jawa Tengah",
                "province_id": "10",
                "type": "Kabupaten",
                "city_name": "Brebes",
                "postal_code": 52212
            },
            {
                "city_id": 105,
                "province": "Jawa Tengah",
                "province_id": "10",
                "type": "Kabupaten",
                "city_name": "Cilacap",
                "postal_code": 53211
            },
            {
                "city_id": 113,
                "province": "Jawa Tengah",
                "province_id": "10",
                "type": "Kabupaten",
                "city_name": "Demak",
                "postal_code": 59519
            },
            {
                "city_id": 134,
                "province": "Jawa Tengah",
                "province_id": "10",
                "type": "Kabupaten",
                "city_name": "Grobogan",
                "postal_code": 58111
            },
            {
                "city_id": 163,
                "province": "Jawa Tengah",
                "province_id": "10",
                "type": "Kabupaten",
                "city_name": "Jepara",
                "postal_code": 59419
            },
            {
                "city_id": 169,
                "province": "Jawa Tengah",
                "province_id": "10",
                "type": "Kabupaten",
                "city_name": "Karanganyar",
                "postal_code": 57718
            },
            {
                "city_id": 177,
                "province": "Jawa Tengah",
                "province_id": "10",
                "type": "Kabupaten",
                "city_name": "Kebumen",
                "postal_code": 54319
            },
            {
                "city_id": 181,
                "province": "Jawa Tengah",
                "province_id": "10",
                "type": "Kabupaten",
                "city_name": "Kendal",
                "postal_code": 51314
            },
            {
                "city_id": 196,
                "province": "Jawa Tengah",
                "province_id": "10",
                "type": "Kabupaten",
                "city_name": "Klaten",
                "postal_code": 57411
            },
            {
                "city_id": 209,
                "province": "Jawa Tengah",
                "province_id": "10",
                "type": "Kabupaten",
                "city_name": "Kudus",
                "postal_code": 59311
            },
            {
                "city_id": 249,
                "province": "Jawa Tengah",
                "province_id": "10",
                "type": "Kabupaten",
                "city_name": "Magelang",
                "postal_code": 56519
            },
            {
                "city_id": 250,
                "province": "Jawa Tengah",
                "province_id": "10",
                "type": "Kota",
                "city_name": "Magelang",
                "postal_code": 56133
            },
            {
                "city_id": 344,
                "province": "Jawa Tengah",
                "province_id": "10",
                "type": "Kabupaten",
                "city_name": "Pati",
                "postal_code": 59114
            },
            {
                "city_id": 348,
                "province": "Jawa Tengah",
                "province_id": "10",
                "type": "Kabupaten",
                "city_name": "Pekalongan",
                "postal_code": 51161
            },
            {
                "city_id": 349,
                "province": "Jawa Tengah",
                "province_id": "10",
                "type": "Kota",
                "city_name": "Pekalongan",
                "postal_code": 51122
            },
            {
                "city_id": 352,
                "province": "Jawa Tengah",
                "province_id": "10",
                "type": "Kabupaten",
                "city_name": "Pemalang",
                "postal_code": 52319
            },
            {
                "city_id": 375,
                "province": "Jawa Tengah",
                "province_id": "10",
                "type": "Kabupaten",
                "city_name": "Purbalingga",
                "postal_code": 53312
            },
            {
                "city_id": 377,
                "province": "Jawa Tengah",
                "province_id": "10",
                "type": "Kabupaten",
                "city_name": "Purworejo",
                "postal_code": 54111
            },
            {
                "city_id": 380,
                "province": "Jawa Tengah",
                "province_id": "10",
                "type": "Kabupaten",
                "city_name": "Rembang",
                "postal_code": 59219
            },
            {
                "city_id": 386,
                "province": "Jawa Tengah",
                "province_id": "10",
                "type": "Kota",
                "city_name": "Salatiga",
                "postal_code": 50711
            },
            {
                "city_id": 398,
                "province": "Jawa Tengah",
                "province_id": "10",
                "type": "Kabupaten",
                "city_name": "Semarang",
                "postal_code": 50511
            },
            {
                "city_id": 399,
                "province": "Jawa Tengah",
                "province_id": "10",
                "type": "Kota",
                "city_name": "Semarang",
                "postal_code": 50135
            },
            {
                "city_id": 427,
                "province": "Jawa Tengah",
                "province_id": "10",
                "type": "Kabupaten",
                "city_name": "Sragen",
                "postal_code": 57211
            },
            {
                "city_id": 433,
                "province": "Jawa Tengah",
                "province_id": "10",
                "type": "Kabupaten",
                "city_name": "Sukoharjo",
                "postal_code": 57514
            },
            {
                "city_id": 445,
                "province": "Jawa Tengah",
                "province_id": "10",
                "type": "Kota",
                "city_name": "Surakarta (Solo)",
                "postal_code": 57113
            },
            {
                "city_id": 472,
                "province": "Jawa Tengah",
                "province_id": "10",
                "type": "Kabupaten",
                "city_name": "Tegal",
                "postal_code": 52419
            },
            {
                "city_id": 473,
                "province": "Jawa Tengah",
                "province_id": "10",
                "type": "Kota",
                "city_name": "Tegal",
                "postal_code": 52114
            },
            {
                "city_id": 476,
                "province": "Jawa Tengah",
                "province_id": "10",
                "type": "Kabupaten",
                "city_name": "Temanggung",
                "postal_code": 56212
            },
            {
                "city_id": 497,
                "province": "Jawa Tengah",
                "province_id": "10",
                "type": "Kabupaten",
                "city_name": "Wonogiri",
                "postal_code": 57619
            },
            {
                "city_id": 498,
                "province": "Jawa Tengah",
                "province_id": "10",
                "type": "Kabupaten",
                "city_name": "Wonosobo",
                "postal_code": 56311
            }
        ]
    },
    {
        "province_id": 11,
        "province": "Jawa Timur",
        "city": [
            {
                "city_id": 31,
                "province": "Jawa Timur",
                "province_id": "11",
                "type": "Kabupaten",
                "city_name": "Bangkalan",
                "postal_code": 69118
            },
            {
                "city_id": 42,
                "province": "Jawa Timur",
                "province_id": "11",
                "type": "Kabupaten",
                "city_name": "Banyuwangi",
                "postal_code": 68416
            },
            {
                "city_id": 51,
                "province": "Jawa Timur",
                "province_id": "11",
                "type": "Kota",
                "city_name": "Batu",
                "postal_code": 65311
            },
            {
                "city_id": 74,
                "province": "Jawa Timur",
                "province_id": "11",
                "type": "Kabupaten",
                "city_name": "Blitar",
                "postal_code": 66171
            },
            {
                "city_id": 75,
                "province": "Jawa Timur",
                "province_id": "11",
                "type": "Kota",
                "city_name": "Blitar",
                "postal_code": 66124
            },
            {
                "city_id": 80,
                "province": "Jawa Timur",
                "province_id": "11",
                "type": "Kabupaten",
                "city_name": "Bojonegoro",
                "postal_code": 62119
            },
            {
                "city_id": 86,
                "province": "Jawa Timur",
                "province_id": "11",
                "type": "Kabupaten",
                "city_name": "Bondowoso",
                "postal_code": 68219
            },
            {
                "city_id": 133,
                "province": "Jawa Timur",
                "province_id": "11",
                "type": "Kabupaten",
                "city_name": "Gresik",
                "postal_code": 61115
            },
            {
                "city_id": 160,
                "province": "Jawa Timur",
                "province_id": "11",
                "type": "Kabupaten",
                "city_name": "Jember",
                "postal_code": 68113
            },
            {
                "city_id": 164,
                "province": "Jawa Timur",
                "province_id": "11",
                "type": "Kabupaten",
                "city_name": "Jombang",
                "postal_code": 61415
            },
            {
                "city_id": 178,
                "province": "Jawa Timur",
                "province_id": "11",
                "type": "Kabupaten",
                "city_name": "Kediri",
                "postal_code": 64184
            },
            {
                "city_id": 179,
                "province": "Jawa Timur",
                "province_id": "11",
                "type": "Kota",
                "city_name": "Kediri",
                "postal_code": 64125
            },
            {
                "city_id": 222,
                "province": "Jawa Timur",
                "province_id": "11",
                "type": "Kabupaten",
                "city_name": "Lamongan",
                "postal_code": 64125
            },
            {
                "city_id": 243,
                "province": "Jawa Timur",
                "province_id": "11",
                "type": "Kabupaten",
                "city_name": "Lumajang",
                "postal_code": 67319
            },
            {
                "city_id": 247,
                "province": "Jawa Timur",
                "province_id": "11",
                "type": "Kabupaten",
                "city_name": "Madiun",
                "postal_code": 63153
            },
            {
                "city_id": 248,
                "province": "Jawa Timur",
                "province_id": "11",
                "type": "Kota",
                "city_name": "Madiun",
                "postal_code": 63122
            },
            {
                "city_id": 251,
                "province": "Jawa Timur",
                "province_id": "11",
                "type": "Kabupaten",
                "city_name": "Magetan",
                "postal_code": 63314
            },
            {
                "city_id": 256,
                "province": "Jawa Timur",
                "province_id": "11",
                "type": "Kota",
                "city_name": "Malang",
                "postal_code": 65112
            },
            {
                "city_id": 255,
                "province": "Jawa Timur",
                "province_id": "11",
                "type": "Kabupaten",
                "city_name": "Malang",
                "postal_code": 65163
            },
            {
                "city_id": 289,
                "province": "Jawa Timur",
                "province_id": "11",
                "type": "Kabupaten",
                "city_name": "Mojokerto",
                "postal_code": 61382
            },
            {
                "city_id": 290,
                "province": "Jawa Timur",
                "province_id": "11",
                "type": "Kota",
                "city_name": "Mojokerto",
                "postal_code": 61316
            },
            {
                "city_id": 305,
                "province": "Jawa Timur",
                "province_id": "11",
                "type": "Kabupaten",
                "city_name": "Nganjuk",
                "postal_code": 64414
            },
            {
                "city_id": 306,
                "province": "Jawa Timur",
                "province_id": "11",
                "type": "Kabupaten",
                "city_name": "Ngawi",
                "postal_code": 63219
            },
            {
                "city_id": 317,
                "province": "Jawa Timur",
                "province_id": "11",
                "type": "Kabupaten",
                "city_name": "Pacitan",
                "postal_code": 63512
            },
            {
                "city_id": 330,
                "province": "Jawa Timur",
                "province_id": "11",
                "type": "Kabupaten",
                "city_name": "Pamekasan",
                "postal_code": 69319
            },
            {
                "city_id": 342,
                "province": "Jawa Timur",
                "province_id": "11",
                "type": "Kabupaten",
                "city_name": "Pasuruan",
                "postal_code": 67153
            },
            {
                "city_id": 343,
                "province": "Jawa Timur",
                "province_id": "11",
                "type": "Kota",
                "city_name": "Pasuruan",
                "postal_code": 67118
            },
            {
                "city_id": 363,
                "province": "Jawa Timur",
                "province_id": "11",
                "type": "Kabupaten",
                "city_name": "Ponorogo",
                "postal_code": 63411
            },
            {
                "city_id": 369,
                "province": "Jawa Timur",
                "province_id": "11",
                "type": "Kabupaten",
                "city_name": "Probolinggo",
                "postal_code": 67282
            },
            {
                "city_id": 370,
                "province": "Jawa Timur",
                "province_id": "11",
                "type": "Kota",
                "city_name": "Probolinggo",
                "postal_code": 67215
            },
            {
                "city_id": 390,
                "province": "Jawa Timur",
                "province_id": "11",
                "type": "Kabupaten",
                "city_name": "Sampang",
                "postal_code": 69219
            },
            {
                "city_id": 409,
                "province": "Jawa Timur",
                "province_id": "11",
                "type": "Kabupaten",
                "city_name": "Sidoarjo",
                "postal_code": 61219
            },
            {
                "city_id": 418,
                "province": "Jawa Timur",
                "province_id": "11",
                "type": "Kabupaten",
                "city_name": "Situbondo",
                "postal_code": 68316
            },
            {
                "city_id": 441,
                "province": "Jawa Timur",
                "province_id": "11",
                "type": "Kabupaten",
                "city_name": "Sumenep",
                "postal_code": 69413
            },
            {
                "city_id": 444,
                "province": "Jawa Timur",
                "province_id": "11",
                "type": "Kota",
                "city_name": "Surabaya",
                "postal_code": 60119
            },
            {
                "city_id": 487,
                "province": "Jawa Timur",
                "province_id": "11",
                "type": "Kabupaten",
                "city_name": "Trenggalek",
                "postal_code": 66312
            },
            {
                "city_id": 489,
                "province": "Jawa Timur",
                "province_id": "11",
                "type": "Kabupaten",
                "city_name": "Tuban",
                "postal_code": 62319
            },
            {
                "city_id": 492,
                "province": "Jawa Timur",
                "province_id": "11",
                "type": "Kabupaten",
                "city_name": "Tulungagung",
                "postal_code": 66212
            }
        ]
    },
    {
        "province_id": 12,
        "province": "Kalimantan Barat",
        "city": [
            {
                "city_id": 61,
                "province": "Kalimantan Barat",
                "province_id": "12",
                "type": "Kabupaten",
                "city_name": "Bengkayang",
                "postal_code": 79213
            },
            {
                "city_id": 168,
                "province": "Kalimantan Barat",
                "province_id": "12",
                "type": "Kabupaten",
                "city_name": "Kapuas Hulu",
                "postal_code": 78719
            },
            {
                "city_id": 176,
                "province": "Kalimantan Barat",
                "province_id": "12",
                "type": "Kabupaten",
                "city_name": "Kayong Utara",
                "postal_code": 78852
            },
            {
                "city_id": 195,
                "province": "Kalimantan Barat",
                "province_id": "12",
                "type": "Kabupaten",
                "city_name": "Ketapang",
                "postal_code": 78874
            },
            {
                "city_id": 208,
                "province": "Kalimantan Barat",
                "province_id": "12",
                "type": "Kabupaten",
                "city_name": "Kubu Raya",
                "postal_code": 78311
            },
            {
                "city_id": 228,
                "province": "Kalimantan Barat",
                "province_id": "12",
                "type": "Kabupaten",
                "city_name": "Landak",
                "postal_code": 78319
            },
            {
                "city_id": 279,
                "province": "Kalimantan Barat",
                "province_id": "12",
                "type": "Kabupaten",
                "city_name": "Melawi",
                "postal_code": 78619
            },
            {
                "city_id": 364,
                "province": "Kalimantan Barat",
                "province_id": "12",
                "type": "Kabupaten",
                "city_name": "Pontianak",
                "postal_code": 78971
            },
            {
                "city_id": 365,
                "province": "Kalimantan Barat",
                "province_id": "12",
                "type": "Kota",
                "city_name": "Pontianak",
                "postal_code": 78112
            },
            {
                "city_id": 388,
                "province": "Kalimantan Barat",
                "province_id": "12",
                "type": "Kabupaten",
                "city_name": "Sambas",
                "postal_code": 79453
            },
            {
                "city_id": 391,
                "province": "Kalimantan Barat",
                "province_id": "12",
                "type": "Kabupaten",
                "city_name": "Sanggau",
                "postal_code": 78557
            },
            {
                "city_id": 395,
                "province": "Kalimantan Barat",
                "province_id": "12",
                "type": "Kabupaten",
                "city_name": "Sekadau",
                "postal_code": 79583
            },
            {
                "city_id": 415,
                "province": "Kalimantan Barat",
                "province_id": "12",
                "type": "Kota",
                "city_name": "Singkawang",
                "postal_code": 79117
            },
            {
                "city_id": 417,
                "province": "Kalimantan Barat",
                "province_id": "12",
                "type": "Kabupaten",
                "city_name": "Sintang",
                "postal_code": 78619
            }
        ]
    },
    {
        "province_id": 13,
        "province": "Kalimantan Selatan",
        "city": [
            {
                "city_id": 18,
                "province": "Kalimantan Selatan",
                "province_id": "13",
                "type": "Kabupaten",
                "city_name": "Balangan",
                "postal_code": 71611
            },
            {
                "city_id": 33,
                "province": "Kalimantan Selatan",
                "province_id": "13",
                "type": "Kabupaten",
                "city_name": "Banjar",
                "postal_code": 70619
            },
            {
                "city_id": 35,
                "province": "Kalimantan Selatan",
                "province_id": "13",
                "type": "Kota",
                "city_name": "Banjarbaru",
                "postal_code": 70712
            },
            {
                "city_id": 36,
                "province": "Kalimantan Selatan",
                "province_id": "13",
                "type": "Kota",
                "city_name": "Banjarmasin",
                "postal_code": 70117
            },
            {
                "city_id": 43,
                "province": "Kalimantan Selatan",
                "province_id": "13",
                "type": "Kabupaten",
                "city_name": "Barito Kuala",
                "postal_code": 70511
            },
            {
                "city_id": 143,
                "province": "Kalimantan Selatan",
                "province_id": "13",
                "type": "Kabupaten",
                "city_name": "Hulu Sungai Selatan",
                "postal_code": 71212
            },
            {
                "city_id": 144,
                "province": "Kalimantan Selatan",
                "province_id": "13",
                "type": "Kabupaten",
                "city_name": "Hulu Sungai Tengah",
                "postal_code": 71313
            },
            {
                "city_id": 145,
                "province": "Kalimantan Selatan",
                "province_id": "13",
                "type": "Kabupaten",
                "city_name": "Hulu Sungai Utara",
                "postal_code": 71419
            },
            {
                "city_id": 203,
                "province": "Kalimantan Selatan",
                "province_id": "13",
                "type": "Kabupaten",
                "city_name": "Kotabaru",
                "postal_code": 72119
            },
            {
                "city_id": 446,
                "province": "Kalimantan Selatan",
                "province_id": "13",
                "type": "Kabupaten",
                "city_name": "Tabalong",
                "postal_code": 71513
            },
            {
                "city_id": 452,
                "province": "Kalimantan Selatan",
                "province_id": "13",
                "type": "Kabupaten",
                "city_name": "Tanah Bumbu",
                "postal_code": 72211
            },
            {
                "city_id": 454,
                "province": "Kalimantan Selatan",
                "province_id": "13",
                "type": "Kabupaten",
                "city_name": "Tanah Laut",
                "postal_code": 70811
            },
            {
                "city_id": 466,
                "province": "Kalimantan Selatan",
                "province_id": "13",
                "type": "Kabupaten",
                "city_name": "Tapin",
                "postal_code": 71119
            }
        ]
    },
    {
        "province_id": 14,
        "province": "Kalimantan Tengah",
        "city": [
            {
                "city_id": 44,
                "province": "Kalimantan Tengah",
                "province_id": "14",
                "type": "Kabupaten",
                "city_name": "Barito Selatan",
                "postal_code": 73711
            },
            {
                "city_id": 45,
                "province": "Kalimantan Tengah",
                "province_id": "14",
                "type": "Kabupaten",
                "city_name": "Barito Timur",
                "postal_code": 73671
            },
            {
                "city_id": 46,
                "province": "Kalimantan Tengah",
                "province_id": "14",
                "type": "Kabupaten",
                "city_name": "Barito Utara",
                "postal_code": 73881
            },
            {
                "city_id": 136,
                "province": "Kalimantan Tengah",
                "province_id": "14",
                "type": "Kabupaten",
                "city_name": "Gunung Mas",
                "postal_code": 74511
            },
            {
                "city_id": 167,
                "province": "Kalimantan Tengah",
                "province_id": "14",
                "type": "Kabupaten",
                "city_name": "Kapuas",
                "postal_code": 73583
            },
            {
                "city_id": 174,
                "province": "Kalimantan Tengah",
                "province_id": "14",
                "type": "Kabupaten",
                "city_name": "Katingan",
                "postal_code": 74411
            },
            {
                "city_id": 205,
                "province": "Kalimantan Tengah",
                "province_id": "14",
                "type": "Kabupaten",
                "city_name": "Kotawaringin Barat",
                "postal_code": 74119
            },
            {
                "city_id": 206,
                "province": "Kalimantan Tengah",
                "province_id": "14",
                "type": "Kabupaten",
                "city_name": "Kotawaringin Timur",
                "postal_code": 74364
            },
            {
                "city_id": 221,
                "province": "Kalimantan Tengah",
                "province_id": "14",
                "type": "Kabupaten",
                "city_name": "Lamandau",
                "postal_code": 74611
            },
            {
                "city_id": 296,
                "province": "Kalimantan Tengah",
                "province_id": "14",
                "type": "Kabupaten",
                "city_name": "Murung Raya",
                "postal_code": 73911
            },
            {
                "city_id": 326,
                "province": "Kalimantan Tengah",
                "province_id": "14",
                "type": "Kota",
                "city_name": "Palangka Raya",
                "postal_code": 73112
            },
            {
                "city_id": 371,
                "province": "Kalimantan Tengah",
                "province_id": "14",
                "type": "Kabupaten",
                "city_name": "Pulang Pisau",
                "postal_code": 74811
            },
            {
                "city_id": 405,
                "province": "Kalimantan Tengah",
                "province_id": "14",
                "type": "Kabupaten",
                "city_name": "Seruyan",
                "postal_code": 74211
            },
            {
                "city_id": 432,
                "province": "Kalimantan Tengah",
                "province_id": "14",
                "type": "Kabupaten",
                "city_name": "Sukamara",
                "postal_code": 74712
            }
        ]
    },
    {
        "province_id": 15,
        "province": "Kalimantan Timur",
        "city": [
            {
                "city_id": 19,
                "province": "Kalimantan Timur",
                "province_id": "15",
                "type": "Kota",
                "city_name": "Balikpapan",
                "postal_code": 76111
            },
            {
                "city_id": 66,
                "province": "Kalimantan Timur",
                "province_id": "15",
                "type": "Kabupaten",
                "city_name": "Berau",
                "postal_code": 77311
            },
            {
                "city_id": 89,
                "province": "Kalimantan Timur",
                "province_id": "15",
                "type": "Kota",
                "city_name": "Bontang",
                "postal_code": 75313
            },
            {
                "city_id": 214,
                "province": "Kalimantan Timur",
                "province_id": "15",
                "type": "Kabupaten",
                "city_name": "Kutai Barat",
                "postal_code": 75711
            },
            {
                "city_id": 215,
                "province": "Kalimantan Timur",
                "province_id": "15",
                "type": "Kabupaten",
                "city_name": "Kutai Kartanegara",
                "postal_code": 75511
            },
            {
                "city_id": 216,
                "province": "Kalimantan Timur",
                "province_id": "15",
                "type": "Kabupaten",
                "city_name": "Kutai Timur",
                "postal_code": 75611
            },
            {
                "city_id": 341,
                "province": "Kalimantan Timur",
                "province_id": "15",
                "type": "Kabupaten",
                "city_name": "Paser",
                "postal_code": 76211
            },
            {
                "city_id": 354,
                "province": "Kalimantan Timur",
                "province_id": "15",
                "type": "Kabupaten",
                "city_name": "Penajam Paser Utara",
                "postal_code": 76311
            },
            {
                "city_id": 387,
                "province": "Kalimantan Timur",
                "province_id": "15",
                "type": "Kota",
                "city_name": "Samarinda",
                "postal_code": 75133
            }
        ]
    },
    {
        "province_id": 16,
        "province": "Kalimantan Utara",
        "city": [
            {
                "city_id": 96,
                "province": "Kalimantan Utara",
                "province_id": "16",
                "type": "Kabupaten",
                "city_name": "Bulungan (Bulongan)",
                "postal_code": 77211
            },
            {
                "city_id": 257,
                "province": "Kalimantan Utara",
                "province_id": "16",
                "type": "Kabupaten",
                "city_name": "Malinau",
                "postal_code": 77511
            },
            {
                "city_id": 311,
                "province": "Kalimantan Utara",
                "province_id": "16",
                "type": "Kabupaten",
                "city_name": "Nunukan",
                "postal_code": 77421
            },
            {
                "city_id": 450,
                "province": "Kalimantan Utara",
                "province_id": "16",
                "type": "Kabupaten",
                "city_name": "Tana Tidung",
                "postal_code": 77611
            },
            {
                "city_id": 467,
                "province": "Kalimantan Utara",
                "province_id": "16",
                "type": "Kota",
                "city_name": "Tarakan",
                "postal_code": 77114
            }
        ]
    },
    {
        "province_id": 17,
        "province": "Kepulauan Riau",
        "city": [
            {
                "city_id": 48,
                "province": "Kepulauan Riau",
                "province_id": "17",
                "type": "Kota",
                "city_name": "Batam",
                "postal_code": 29413
            },
            {
                "city_id": 71,
                "province": "Kepulauan Riau",
                "province_id": "17",
                "type": "Kabupaten",
                "city_name": "Bintan",
                "postal_code": 29135
            },
            {
                "city_id": 172,
                "province": "Kepulauan Riau",
                "province_id": "17",
                "type": "Kabupaten",
                "city_name": "Karimun",
                "postal_code": 29611
            },
            {
                "city_id": 184,
                "province": "Kepulauan Riau",
                "province_id": "17",
                "type": "Kabupaten",
                "city_name": "Kepulauan Anambas",
                "postal_code": 29991
            },
            {
                "city_id": 237,
                "province": "Kepulauan Riau",
                "province_id": "17",
                "type": "Kabupaten",
                "city_name": "Lingga",
                "postal_code": 29811
            },
            {
                "city_id": 302,
                "province": "Kepulauan Riau",
                "province_id": "17",
                "type": "Kabupaten",
                "city_name": "Natuna",
                "postal_code": 29711
            },
            {
                "city_id": 462,
                "province": "Kepulauan Riau",
                "province_id": "17",
                "type": "Kota",
                "city_name": "Tanjung Pinang",
                "postal_code": 29111
            }
        ]
    },
    {
        "province_id": 18,
        "province": "Lampung",
        "city": [
            {
                "city_id": 21,
                "province": "Lampung",
                "province_id": "18",
                "type": "Kota",
                "city_name": "Bandar Lampung",
                "postal_code": 35139
            },
            {
                "city_id": 223,
                "province": "Lampung",
                "province_id": "18",
                "type": "Kabupaten",
                "city_name": "Lampung Barat",
                "postal_code": 34814
            },
            {
                "city_id": 224,
                "province": "Lampung",
                "province_id": "18",
                "type": "Kabupaten",
                "city_name": "Lampung Selatan",
                "postal_code": 35511
            },
            {
                "city_id": 225,
                "province": "Lampung",
                "province_id": "18",
                "type": "Kabupaten",
                "city_name": "Lampung Tengah",
                "postal_code": 34212
            },
            {
                "city_id": 226,
                "province": "Lampung",
                "province_id": "18",
                "type": "Kabupaten",
                "city_name": "Lampung Timur",
                "postal_code": 34319
            },
            {
                "city_id": 227,
                "province": "Lampung",
                "province_id": "18",
                "type": "Kabupaten",
                "city_name": "Lampung Utara",
                "postal_code": 34516
            },
            {
                "city_id": 282,
                "province": "Lampung",
                "province_id": "18",
                "type": "Kabupaten",
                "city_name": "Mesuji",
                "postal_code": 34911
            },
            {
                "city_id": 283,
                "province": "Lampung",
                "province_id": "18",
                "type": "Kota",
                "city_name": "Metro",
                "postal_code": 34111
            },
            {
                "city_id": 355,
                "province": "Lampung",
                "province_id": "18",
                "type": "Kabupaten",
                "city_name": "Pesawaran",
                "postal_code": 35312
            },
            {
                "city_id": 356,
                "province": "Lampung",
                "province_id": "18",
                "type": "Kabupaten",
                "city_name": "Pesisir Barat",
                "postal_code": 35974
            },
            {
                "city_id": 368,
                "province": "Lampung",
                "province_id": "18",
                "type": "Kabupaten",
                "city_name": "Pringsewu",
                "postal_code": 35719
            },
            {
                "city_id": 458,
                "province": "Lampung",
                "province_id": "18",
                "type": "Kabupaten",
                "city_name": "Tanggamus",
                "postal_code": 35619
            },
            {
                "city_id": 490,
                "province": "Lampung",
                "province_id": "18",
                "type": "Kabupaten",
                "city_name": "Tulang Bawang",
                "postal_code": 34613
            },
            {
                "city_id": 491,
                "province": "Lampung",
                "province_id": "18",
                "type": "Kabupaten",
                "city_name": "Tulang Bawang Barat",
                "postal_code": 34419
            },
            {
                "city_id": 496,
                "province": "Lampung",
                "province_id": "18",
                "type": "Kabupaten",
                "city_name": "Way Kanan",
                "postal_code": 34711
            }
        ]
    },
    {
        "province_id": 19,
        "province": "Maluku",
        "city": [
            {
                "city_id": 14,
                "province": "Maluku",
                "province_id": "19",
                "type": "Kota",
                "city_name": "Ambon",
                "postal_code": 97222
            },
            {
                "city_id": 99,
                "province": "Maluku",
                "province_id": "19",
                "type": "Kabupaten",
                "city_name": "Buru",
                "postal_code": 97371
            },
            {
                "city_id": 100,
                "province": "Maluku",
                "province_id": "19",
                "type": "Kabupaten",
                "city_name": "Buru Selatan",
                "postal_code": 97351
            },
            {
                "city_id": 185,
                "province": "Maluku",
                "province_id": "19",
                "type": "Kabupaten",
                "city_name": "Kepulauan Aru",
                "postal_code": 97681
            },
            {
                "city_id": 258,
                "province": "Maluku",
                "province_id": "19",
                "type": "Kabupaten",
                "city_name": "Maluku Barat Daya",
                "postal_code": 97451
            },
            {
                "city_id": 259,
                "province": "Maluku",
                "province_id": "19",
                "type": "Kabupaten",
                "city_name": "Maluku Tengah",
                "postal_code": 97513
            },
            {
                "city_id": 260,
                "province": "Maluku",
                "province_id": "19",
                "type": "Kabupaten",
                "city_name": "Maluku Tenggara",
                "postal_code": 97651
            },
            {
                "city_id": 261,
                "province": "Maluku",
                "province_id": "19",
                "type": "Kabupaten",
                "city_name": "Maluku Tenggara Barat",
                "postal_code": 97465
            },
            {
                "city_id": 400,
                "province": "Maluku",
                "province_id": "19",
                "type": "Kabupaten",
                "city_name": "Seram Bagian Barat",
                "postal_code": 97561
            },
            {
                "city_id": 401,
                "province": "Maluku",
                "province_id": "19",
                "type": "Kabupaten",
                "city_name": "Seram Bagian Timur",
                "postal_code": 97581
            },
            {
                "city_id": 488,
                "province": "Maluku",
                "province_id": "19",
                "type": "Kota",
                "city_name": "Tual",
                "postal_code": 97612
            }
        ]
    },
    {
        "province_id": 20,
        "province": "Maluku Utara",
        "city": [
            {
                "city_id": 138,
                "province": "Maluku Utara",
                "province_id": "20",
                "type": "Kabupaten",
                "city_name": "Halmahera Barat",
                "postal_code": 97757
            },
            {
                "city_id": 139,
                "province": "Maluku Utara",
                "province_id": "20",
                "type": "Kabupaten",
                "city_name": "Halmahera Selatan",
                "postal_code": 97911
            },
            {
                "city_id": 140,
                "province": "Maluku Utara",
                "province_id": "20",
                "type": "Kabupaten",
                "city_name": "Halmahera Tengah",
                "postal_code": 97853
            },
            {
                "city_id": 141,
                "province": "Maluku Utara",
                "province_id": "20",
                "type": "Kabupaten",
                "city_name": "Halmahera Timur",
                "postal_code": 97862
            },
            {
                "city_id": 142,
                "province": "Maluku Utara",
                "province_id": "20",
                "type": "Kabupaten",
                "city_name": "Halmahera Utara",
                "postal_code": 97762
            },
            {
                "city_id": 191,
                "province": "Maluku Utara",
                "province_id": "20",
                "type": "Kabupaten",
                "city_name": "Kepulauan Sula",
                "postal_code": 97995
            },
            {
                "city_id": 372,
                "province": "Maluku Utara",
                "province_id": "20",
                "type": "Kabupaten",
                "city_name": "Pulau Morotai",
                "postal_code": 97771
            },
            {
                "city_id": 477,
                "province": "Maluku Utara",
                "province_id": "20",
                "type": "Kota",
                "city_name": "Ternate",
                "postal_code": 97714
            },
            {
                "city_id": 478,
                "province": "Maluku Utara",
                "province_id": "20",
                "type": "Kota",
                "city_name": "Tidore Kepulauan",
                "postal_code": 97815
            }
        ]
    },
    {
        "province_id": 21,
        "province": "Nanggroe Aceh Darussalam (NAD)",
        "city": [
            {
                "city_id": 1,
                "province": "Nanggroe Aceh Darussalam (NAD)",
                "province_id": "21",
                "type": "Kabupaten",
                "city_name": "Aceh Barat",
                "postal_code": 23681
            },
            {
                "city_id": 2,
                "province": "Nanggroe Aceh Darussalam (NAD)",
                "province_id": "21",
                "type": "Kabupaten",
                "city_name": "Aceh Barat Daya",
                "postal_code": 23764
            },
            {
                "city_id": 3,
                "province": "Nanggroe Aceh Darussalam (NAD)",
                "province_id": "21",
                "type": "Kabupaten",
                "city_name": "Aceh Besar",
                "postal_code": 23951
            },
            {
                "city_id": 4,
                "province": "Nanggroe Aceh Darussalam (NAD)",
                "province_id": "21",
                "type": "Kabupaten",
                "city_name": "Aceh Jaya",
                "postal_code": 23654
            },
            {
                "city_id": 5,
                "province": "Nanggroe Aceh Darussalam (NAD)",
                "province_id": "21",
                "type": "Kabupaten",
                "city_name": "Aceh Selatan",
                "postal_code": 23719
            },
            {
                "city_id": 6,
                "province": "Nanggroe Aceh Darussalam (NAD)",
                "province_id": "21",
                "type": "Kabupaten",
                "city_name": "Aceh Singkil",
                "postal_code": 24785
            },
            {
                "city_id": 7,
                "province": "Nanggroe Aceh Darussalam (NAD)",
                "province_id": "21",
                "type": "Kabupaten",
                "city_name": "Aceh Tamiang",
                "postal_code": 24476
            },
            {
                "city_id": 8,
                "province": "Nanggroe Aceh Darussalam (NAD)",
                "province_id": "21",
                "type": "Kabupaten",
                "city_name": "Aceh Tengah",
                "postal_code": 24511
            },
            {
                "city_id": 9,
                "province": "Nanggroe Aceh Darussalam (NAD)",
                "province_id": "21",
                "type": "Kabupaten",
                "city_name": "Aceh Tenggara",
                "postal_code": 24611
            },
            {
                "city_id": 10,
                "province": "Nanggroe Aceh Darussalam (NAD)",
                "province_id": "21",
                "type": "Kabupaten",
                "city_name": "Aceh Timur",
                "postal_code": 24454
            },
            {
                "city_id": 11,
                "province": "Nanggroe Aceh Darussalam (NAD)",
                "province_id": "21",
                "type": "Kabupaten",
                "city_name": "Aceh Utara",
                "postal_code": 24382
            },
            {
                "city_id": 20,
                "province": "Nanggroe Aceh Darussalam (NAD)",
                "province_id": "21",
                "type": "Kota",
                "city_name": "Banda Aceh",
                "postal_code": 23238
            },
            {
                "city_id": 59,
                "province": "Nanggroe Aceh Darussalam (NAD)",
                "province_id": "21",
                "type": "Kabupaten",
                "city_name": "Bener Meriah",
                "postal_code": 24581
            },
            {
                "city_id": 72,
                "province": "Nanggroe Aceh Darussalam (NAD)",
                "province_id": "21",
                "type": "Kabupaten",
                "city_name": "Bireuen",
                "postal_code": 24219
            },
            {
                "city_id": 127,
                "province": "Nanggroe Aceh Darussalam (NAD)",
                "province_id": "21",
                "type": "Kabupaten",
                "city_name": "Gayo Lues",
                "postal_code": 24653
            },
            {
                "city_id": 230,
                "province": "Nanggroe Aceh Darussalam (NAD)",
                "province_id": "21",
                "type": "Kota",
                "city_name": "Langsa",
                "postal_code": 24412
            },
            {
                "city_id": 235,
                "province": "Nanggroe Aceh Darussalam (NAD)",
                "province_id": "21",
                "type": "Kota",
                "city_name": "Lhokseumawe",
                "postal_code": 24352
            },
            {
                "city_id": 300,
                "province": "Nanggroe Aceh Darussalam (NAD)",
                "province_id": "21",
                "type": "Kabupaten",
                "city_name": "Nagan Raya",
                "postal_code": 23674
            },
            {
                "city_id": 358,
                "province": "Nanggroe Aceh Darussalam (NAD)",
                "province_id": "21",
                "type": "Kabupaten",
                "city_name": "Pidie",
                "postal_code": 24116
            },
            {
                "city_id": 359,
                "province": "Nanggroe Aceh Darussalam (NAD)",
                "province_id": "21",
                "type": "Kabupaten",
                "city_name": "Pidie Jaya",
                "postal_code": 24186
            },
            {
                "city_id": 384,
                "province": "Nanggroe Aceh Darussalam (NAD)",
                "province_id": "21",
                "type": "Kota",
                "city_name": "Sabang",
                "postal_code": 23512
            },
            {
                "city_id": 414,
                "province": "Nanggroe Aceh Darussalam (NAD)",
                "province_id": "21",
                "type": "Kabupaten",
                "city_name": "Simeulue",
                "postal_code": 23891
            },
            {
                "city_id": 429,
                "province": "Nanggroe Aceh Darussalam (NAD)",
                "province_id": "21",
                "type": "Kota",
                "city_name": "Subulussalam",
                "postal_code": 24882
            }
        ]
    },
    {
        "province_id": 22,
        "province": "Nusa Tenggara Barat (NTB)",
        "city": [
            {
                "city_id": 68,
                "province": "Nusa Tenggara Barat (NTB)",
                "province_id": "22",
                "type": "Kabupaten",
                "city_name": "Bima",
                "postal_code": 84171
            },
            {
                "city_id": 69,
                "province": "Nusa Tenggara Barat (NTB)",
                "province_id": "22",
                "type": "Kota",
                "city_name": "Bima",
                "postal_code": 84139
            },
            {
                "city_id": 118,
                "province": "Nusa Tenggara Barat (NTB)",
                "province_id": "22",
                "type": "Kabupaten",
                "city_name": "Dompu",
                "postal_code": 84217
            },
            {
                "city_id": 238,
                "province": "Nusa Tenggara Barat (NTB)",
                "province_id": "22",
                "type": "Kabupaten",
                "city_name": "Lombok Barat",
                "postal_code": 83311
            },
            {
                "city_id": 239,
                "province": "Nusa Tenggara Barat (NTB)",
                "province_id": "22",
                "type": "Kabupaten",
                "city_name": "Lombok Tengah",
                "postal_code": 83511
            },
            {
                "city_id": 240,
                "province": "Nusa Tenggara Barat (NTB)",
                "province_id": "22",
                "type": "Kabupaten",
                "city_name": "Lombok Timur",
                "postal_code": 83612
            },
            {
                "city_id": 241,
                "province": "Nusa Tenggara Barat (NTB)",
                "province_id": "22",
                "type": "Kabupaten",
                "city_name": "Lombok Utara",
                "postal_code": 83711
            },
            {
                "city_id": 276,
                "province": "Nusa Tenggara Barat (NTB)",
                "province_id": "22",
                "type": "Kota",
                "city_name": "Mataram",
                "postal_code": 83131
            },
            {
                "city_id": 438,
                "province": "Nusa Tenggara Barat (NTB)",
                "province_id": "22",
                "type": "Kabupaten",
                "city_name": "Sumbawa",
                "postal_code": 84315
            },
            {
                "city_id": 439,
                "province": "Nusa Tenggara Barat (NTB)",
                "province_id": "22",
                "type": "Kabupaten",
                "city_name": "Sumbawa Barat",
                "postal_code": 84419
            }
        ]
    },
    {
        "province_id": 23,
        "province": "Nusa Tenggara Timur (NTT)",
        "city": [
            {
                "city_id": 13,
                "province": "Nusa Tenggara Timur (NTT)",
                "province_id": "23",
                "type": "Kabupaten",
                "city_name": "Alor",
                "postal_code": 85811
            },
            {
                "city_id": 58,
                "province": "Nusa Tenggara Timur (NTT)",
                "province_id": "23",
                "type": "Kabupaten",
                "city_name": "Belu",
                "postal_code": 85711
            },
            {
                "city_id": 122,
                "province": "Nusa Tenggara Timur (NTT)",
                "province_id": "23",
                "type": "Kabupaten",
                "city_name": "Ende",
                "postal_code": 86351
            },
            {
                "city_id": 125,
                "province": "Nusa Tenggara Timur (NTT)",
                "province_id": "23",
                "type": "Kabupaten",
                "city_name": "Flores Timur",
                "postal_code": 86213
            },
            {
                "city_id": 212,
                "province": "Nusa Tenggara Timur (NTT)",
                "province_id": "23",
                "type": "Kabupaten",
                "city_name": "Kupang",
                "postal_code": 85362
            },
            {
                "city_id": 213,
                "province": "Nusa Tenggara Timur (NTT)",
                "province_id": "23",
                "type": "Kota",
                "city_name": "Kupang",
                "postal_code": 85119
            },
            {
                "city_id": 234,
                "province": "Nusa Tenggara Timur (NTT)",
                "province_id": "23",
                "type": "Kabupaten",
                "city_name": "Lembata",
                "postal_code": 86611
            },
            {
                "city_id": 269,
                "province": "Nusa Tenggara Timur (NTT)",
                "province_id": "23",
                "type": "Kabupaten",
                "city_name": "Manggarai",
                "postal_code": 86551
            },
            {
                "city_id": 270,
                "province": "Nusa Tenggara Timur (NTT)",
                "province_id": "23",
                "type": "Kabupaten",
                "city_name": "Manggarai Barat",
                "postal_code": 86711
            },
            {
                "city_id": 271,
                "province": "Nusa Tenggara Timur (NTT)",
                "province_id": "23",
                "type": "Kabupaten",
                "city_name": "Manggarai Timur",
                "postal_code": 86811
            },
            {
                "city_id": 301,
                "province": "Nusa Tenggara Timur (NTT)",
                "province_id": "23",
                "type": "Kabupaten",
                "city_name": "Nagekeo",
                "postal_code": 86911
            },
            {
                "city_id": 304,
                "province": "Nusa Tenggara Timur (NTT)",
                "province_id": "23",
                "type": "Kabupaten",
                "city_name": "Ngada",
                "postal_code": 86413
            },
            {
                "city_id": 383,
                "province": "Nusa Tenggara Timur (NTT)",
                "province_id": "23",
                "type": "Kabupaten",
                "city_name": "Rote Ndao",
                "postal_code": 85982
            },
            {
                "city_id": 385,
                "province": "Nusa Tenggara Timur (NTT)",
                "province_id": "23",
                "type": "Kabupaten",
                "city_name": "Sabu Raijua",
                "postal_code": 85391
            },
            {
                "city_id": 412,
                "province": "Nusa Tenggara Timur (NTT)",
                "province_id": "23",
                "type": "Kabupaten",
                "city_name": "Sikka",
                "postal_code": 86121
            },
            {
                "city_id": 434,
                "province": "Nusa Tenggara Timur (NTT)",
                "province_id": "23",
                "type": "Kabupaten",
                "city_name": "Sumba Barat",
                "postal_code": 87219
            },
            {
                "city_id": 435,
                "province": "Nusa Tenggara Timur (NTT)",
                "province_id": "23",
                "type": "Kabupaten",
                "city_name": "Sumba Barat Daya",
                "postal_code": 87453
            },
            {
                "city_id": 436,
                "province": "Nusa Tenggara Timur (NTT)",
                "province_id": "23",
                "type": "Kabupaten",
                "city_name": "Sumba Tengah",
                "postal_code": 87358
            },
            {
                "city_id": 437,
                "province": "Nusa Tenggara Timur (NTT)",
                "province_id": "23",
                "type": "Kabupaten",
                "city_name": "Sumba Timur",
                "postal_code": 87112
            },
            {
                "city_id": 479,
                "province": "Nusa Tenggara Timur (NTT)",
                "province_id": "23",
                "type": "Kabupaten",
                "city_name": "Timor Tengah Selatan",
                "postal_code": 85562
            },
            {
                "city_id": 480,
                "province": "Nusa Tenggara Timur (NTT)",
                "province_id": "23",
                "type": "Kabupaten",
                "city_name": "Timor Tengah Utara",
                "postal_code": 85612
            }
        ]
    },
    {
        "province_id": 24,
        "province": "Papua",
        "city": [
            {
                "city_id": 16,
                "province": "Papua",
                "province_id": "24",
                "type": "Kabupaten",
                "city_name": "Asmat",
                "postal_code": 99777
            },
            {
                "city_id": 67,
                "province": "Papua",
                "province_id": "24",
                "type": "Kabupaten",
                "city_name": "Biak Numfor",
                "postal_code": 98119
            },
            {
                "city_id": 90,
                "province": "Papua",
                "province_id": "24",
                "type": "Kabupaten",
                "city_name": "Boven Digoel",
                "postal_code": 99662
            },
            {
                "city_id": 111,
                "province": "Papua",
                "province_id": "24",
                "type": "Kabupaten",
                "city_name": "Deiyai (Deliyai)",
                "postal_code": 98784
            },
            {
                "city_id": 117,
                "province": "Papua",
                "province_id": "24",
                "type": "Kabupaten",
                "city_name": "Dogiyai",
                "postal_code": 98866
            },
            {
                "city_id": 150,
                "province": "Papua",
                "province_id": "24",
                "type": "Kabupaten",
                "city_name": "Intan Jaya",
                "postal_code": 98771
            },
            {
                "city_id": 157,
                "province": "Papua",
                "province_id": "24",
                "type": "Kabupaten",
                "city_name": "Jayapura",
                "postal_code": 99352
            },
            {
                "city_id": 158,
                "province": "Papua",
                "province_id": "24",
                "type": "Kota",
                "city_name": "Jayapura",
                "postal_code": 99114
            },
            {
                "city_id": 159,
                "province": "Papua",
                "province_id": "24",
                "type": "Kabupaten",
                "city_name": "Jayawijaya",
                "postal_code": 99511
            },
            {
                "city_id": 180,
                "province": "Papua",
                "province_id": "24",
                "type": "Kabupaten",
                "city_name": "Keerom",
                "postal_code": 99461
            },
            {
                "city_id": 193,
                "province": "Papua",
                "province_id": "24",
                "type": "Kabupaten",
                "city_name": "Kepulauan Yapen (Yapen Waropen)",
                "postal_code": 98211
            },
            {
                "city_id": 231,
                "province": "Papua",
                "province_id": "24",
                "type": "Kabupaten",
                "city_name": "Lanny Jaya",
                "postal_code": 99531
            },
            {
                "city_id": 263,
                "province": "Papua",
                "province_id": "24",
                "type": "Kabupaten",
                "city_name": "Mamberamo Raya",
                "postal_code": 99381
            },
            {
                "city_id": 264,
                "province": "Papua",
                "province_id": "24",
                "type": "Kabupaten",
                "city_name": "Mamberamo Tengah",
                "postal_code": 99553
            },
            {
                "city_id": 274,
                "province": "Papua",
                "province_id": "24",
                "type": "Kabupaten",
                "city_name": "Mappi",
                "postal_code": 99853
            },
            {
                "city_id": 281,
                "province": "Papua",
                "province_id": "24",
                "type": "Kabupaten",
                "city_name": "Merauke",
                "postal_code": 99613
            },
            {
                "city_id": 284,
                "province": "Papua",
                "province_id": "24",
                "type": "Kabupaten",
                "city_name": "Mimika",
                "postal_code": 99962
            },
            {
                "city_id": 299,
                "province": "Papua",
                "province_id": "24",
                "type": "Kabupaten",
                "city_name": "Nabire",
                "postal_code": 98816
            },
            {
                "city_id": 303,
                "province": "Papua",
                "province_id": "24",
                "type": "Kabupaten",
                "city_name": "Nduga",
                "postal_code": 99541
            },
            {
                "city_id": 335,
                "province": "Papua",
                "province_id": "24",
                "type": "Kabupaten",
                "city_name": "Paniai",
                "postal_code": 98765
            },
            {
                "city_id": 347,
                "province": "Papua",
                "province_id": "24",
                "type": "Kabupaten",
                "city_name": "Pegunungan Bintang",
                "postal_code": 99573
            },
            {
                "city_id": 373,
                "province": "Papua",
                "province_id": "24",
                "type": "Kabupaten",
                "city_name": "Puncak",
                "postal_code": 98981
            },
            {
                "city_id": 374,
                "province": "Papua",
                "province_id": "24",
                "type": "Kabupaten",
                "city_name": "Puncak Jaya",
                "postal_code": 98979
            },
            {
                "city_id": 392,
                "province": "Papua",
                "province_id": "24",
                "type": "Kabupaten",
                "city_name": "Sarmi",
                "postal_code": 99373
            },
            {
                "city_id": 443,
                "province": "Papua",
                "province_id": "24",
                "type": "Kabupaten",
                "city_name": "Supiori",
                "postal_code": 98164
            },
            {
                "city_id": 484,
                "province": "Papua",
                "province_id": "24",
                "type": "Kabupaten",
                "city_name": "Tolikara",
                "postal_code": 99411
            },
            {
                "city_id": 495,
                "province": "Papua",
                "province_id": "24",
                "type": "Kabupaten",
                "city_name": "Waropen",
                "postal_code": 98269
            },
            {
                "city_id": 499,
                "province": "Papua",
                "province_id": "24",
                "type": "Kabupaten",
                "city_name": "Yahukimo",
                "postal_code": 99041
            },
            {
                "city_id": 500,
                "province": "Papua",
                "province_id": "24",
                "type": "Kabupaten",
                "city_name": "Yalimo",
                "postal_code": 99481
            }
        ]
    },
    {
        "province_id": 25,
        "province": "Papua Barat",
        "city": [
            {
                "city_id": 124,
                "province": "Papua Barat",
                "province_id": "25",
                "type": "Kabupaten",
                "city_name": "Fakfak",
                "postal_code": 98651
            },
            {
                "city_id": 165,
                "province": "Papua Barat",
                "province_id": "25",
                "type": "Kabupaten",
                "city_name": "Kaimana",
                "postal_code": 98671
            },
            {
                "city_id": 272,
                "province": "Papua Barat",
                "province_id": "25",
                "type": "Kabupaten",
                "city_name": "Manokwari",
                "postal_code": 98311
            },
            {
                "city_id": 273,
                "province": "Papua Barat",
                "province_id": "25",
                "type": "Kabupaten",
                "city_name": "Manokwari Selatan",
                "postal_code": 98355
            },
            {
                "city_id": 277,
                "province": "Papua Barat",
                "province_id": "25",
                "type": "Kabupaten",
                "city_name": "Maybrat",
                "postal_code": 98051
            },
            {
                "city_id": 346,
                "province": "Papua Barat",
                "province_id": "25",
                "type": "Kabupaten",
                "city_name": "Pegunungan Arfak",
                "postal_code": 98354
            },
            {
                "city_id": 378,
                "province": "Papua Barat",
                "province_id": "25",
                "type": "Kabupaten",
                "city_name": "Raja Ampat",
                "postal_code": 98489
            },
            {
                "city_id": 424,
                "province": "Papua Barat",
                "province_id": "25",
                "type": "Kabupaten",
                "city_name": "Sorong",
                "postal_code": 98431
            },
            {
                "city_id": 425,
                "province": "Papua Barat",
                "province_id": "25",
                "type": "Kota",
                "city_name": "Sorong",
                "postal_code": 98411
            },
            {
                "city_id": 426,
                "province": "Papua Barat",
                "province_id": "25",
                "type": "Kabupaten",
                "city_name": "Sorong Selatan",
                "postal_code": 98454
            },
            {
                "city_id": 449,
                "province": "Papua Barat",
                "province_id": "25",
                "type": "Kabupaten",
                "city_name": "Tambrauw",
                "postal_code": 98475
            },
            {
                "city_id": 474,
                "province": "Papua Barat",
                "province_id": "25",
                "type": "Kabupaten",
                "city_name": "Teluk Bintuni",
                "postal_code": 98551
            },
            {
                "city_id": 475,
                "province": "Papua Barat",
                "province_id": "25",
                "type": "Kabupaten",
                "city_name": "Teluk Wondama",
                "postal_code": 98591
            }
        ]
    },
    {
        "province_id": 26,
        "province": "Riau",
        "city": [
            {
                "city_id": 60,
                "province": "Riau",
                "province_id": "26",
                "type": "Kabupaten",
                "city_name": "Bengkalis",
                "postal_code": 28719
            },
            {
                "city_id": 120,
                "province": "Riau",
                "province_id": "26",
                "type": "Kota",
                "city_name": "Dumai",
                "postal_code": 28811
            },
            {
                "city_id": 147,
                "province": "Riau",
                "province_id": "26",
                "type": "Kabupaten",
                "city_name": "Indragiri Hilir",
                "postal_code": 29212
            },
            {
                "city_id": 148,
                "province": "Riau",
                "province_id": "26",
                "type": "Kabupaten",
                "city_name": "Indragiri Hulu",
                "postal_code": 29319
            },
            {
                "city_id": 166,
                "province": "Riau",
                "province_id": "26",
                "type": "Kabupaten",
                "city_name": "Kampar",
                "postal_code": 28411
            },
            {
                "city_id": 187,
                "province": "Riau",
                "province_id": "26",
                "type": "Kabupaten",
                "city_name": "Kepulauan Meranti",
                "postal_code": 28791
            },
            {
                "city_id": 207,
                "province": "Riau",
                "province_id": "26",
                "type": "Kabupaten",
                "city_name": "Kuantan Singingi",
                "postal_code": 29519
            },
            {
                "city_id": 350,
                "province": "Riau",
                "province_id": "26",
                "type": "Kota",
                "city_name": "Pekanbaru",
                "postal_code": 28112
            },
            {
                "city_id": 351,
                "province": "Riau",
                "province_id": "26",
                "type": "Kabupaten",
                "city_name": "Pelalawan",
                "postal_code": 28311
            },
            {
                "city_id": 381,
                "province": "Riau",
                "province_id": "26",
                "type": "Kabupaten",
                "city_name": "Rokan Hilir",
                "postal_code": 28992
            },
            {
                "city_id": 382,
                "province": "Riau",
                "province_id": "26",
                "type": "Kabupaten",
                "city_name": "Rokan Hulu",
                "postal_code": 28511
            },
            {
                "city_id": 406,
                "province": "Riau",
                "province_id": "26",
                "type": "Kabupaten",
                "city_name": "Siak",
                "postal_code": 28623
            }
        ]
    },
    {
        "province_id": 27,
        "province": "Sulawesi Barat",
        "city": [
            {
                "city_id": 253,
                "province": "Sulawesi Barat",
                "province_id": "27",
                "type": "Kabupaten",
                "city_name": "Majene",
                "postal_code": 91411
            },
            {
                "city_id": 262,
                "province": "Sulawesi Barat",
                "province_id": "27",
                "type": "Kabupaten",
                "city_name": "Mamasa",
                "postal_code": 91362
            },
            {
                "city_id": 265,
                "province": "Sulawesi Barat",
                "province_id": "27",
                "type": "Kabupaten",
                "city_name": "Mamuju",
                "postal_code": 91519
            },
            {
                "city_id": 266,
                "province": "Sulawesi Barat",
                "province_id": "27",
                "type": "Kabupaten",
                "city_name": "Mamuju Utara",
                "postal_code": 91571
            },
            {
                "city_id": 362,
                "province": "Sulawesi Barat",
                "province_id": "27",
                "type": "Kabupaten",
                "city_name": "Polewali Mandar",
                "postal_code": 91311
            }
        ]
    },
    {
        "province_id": 28,
        "province": "Sulawesi Selatan",
        "city": [
            {
                "city_id": 38,
                "province": "Sulawesi Selatan",
                "province_id": "28",
                "type": "Kabupaten",
                "city_name": "Bantaeng",
                "postal_code": 92411
            },
            {
                "city_id": 47,
                "province": "Sulawesi Selatan",
                "province_id": "28",
                "type": "Kabupaten",
                "city_name": "Barru",
                "postal_code": 90719
            },
            {
                "city_id": 87,
                "province": "Sulawesi Selatan",
                "province_id": "28",
                "type": "Kabupaten",
                "city_name": "Bone",
                "postal_code": 92713
            },
            {
                "city_id": 95,
                "province": "Sulawesi Selatan",
                "province_id": "28",
                "type": "Kabupaten",
                "city_name": "Bulukumba",
                "postal_code": 92511
            },
            {
                "city_id": 123,
                "province": "Sulawesi Selatan",
                "province_id": "28",
                "type": "Kabupaten",
                "city_name": "Enrekang",
                "postal_code": 91719
            },
            {
                "city_id": 132,
                "province": "Sulawesi Selatan",
                "province_id": "28",
                "type": "Kabupaten",
                "city_name": "Gowa",
                "postal_code": 92111
            },
            {
                "city_id": 162,
                "province": "Sulawesi Selatan",
                "province_id": "28",
                "type": "Kabupaten",
                "city_name": "Jeneponto",
                "postal_code": 92319
            },
            {
                "city_id": 244,
                "province": "Sulawesi Selatan",
                "province_id": "28",
                "type": "Kabupaten",
                "city_name": "Luwu",
                "postal_code": 91994
            },
            {
                "city_id": 245,
                "province": "Sulawesi Selatan",
                "province_id": "28",
                "type": "Kabupaten",
                "city_name": "Luwu Timur",
                "postal_code": 92981
            },
            {
                "city_id": 246,
                "province": "Sulawesi Selatan",
                "province_id": "28",
                "type": "Kabupaten",
                "city_name": "Luwu Utara",
                "postal_code": 92911
            },
            {
                "city_id": 254,
                "province": "Sulawesi Selatan",
                "province_id": "28",
                "type": "Kota",
                "city_name": "Makassar",
                "postal_code": 90111
            },
            {
                "city_id": 275,
                "province": "Sulawesi Selatan",
                "province_id": "28",
                "type": "Kabupaten",
                "city_name": "Maros",
                "postal_code": 90511
            },
            {
                "city_id": 328,
                "province": "Sulawesi Selatan",
                "province_id": "28",
                "type": "Kota",
                "city_name": "Palopo",
                "postal_code": 91911
            },
            {
                "city_id": 333,
                "province": "Sulawesi Selatan",
                "province_id": "28",
                "type": "Kabupaten",
                "city_name": "Pangkajene Kepulauan",
                "postal_code": 90611
            },
            {
                "city_id": 336,
                "province": "Sulawesi Selatan",
                "province_id": "28",
                "type": "Kota",
                "city_name": "Parepare",
                "postal_code": 91123
            },
            {
                "city_id": 360,
                "province": "Sulawesi Selatan",
                "province_id": "28",
                "type": "Kabupaten",
                "city_name": "Pinrang",
                "postal_code": 91251
            },
            {
                "city_id": 396,
                "province": "Sulawesi Selatan",
                "province_id": "28",
                "type": "Kabupaten",
                "city_name": "Selayar (Kepulauan Selayar)",
                "postal_code": 92812
            },
            {
                "city_id": 408,
                "province": "Sulawesi Selatan",
                "province_id": "28",
                "type": "Kabupaten",
                "city_name": "Sidenreng Rappang/Rapang",
                "postal_code": 91613
            },
            {
                "city_id": 416,
                "province": "Sulawesi Selatan",
                "province_id": "28",
                "type": "Kabupaten",
                "city_name": "Sinjai",
                "postal_code": 92615
            },
            {
                "city_id": 423,
                "province": "Sulawesi Selatan",
                "province_id": "28",
                "type": "Kabupaten",
                "city_name": "Soppeng",
                "postal_code": 90812
            },
            {
                "city_id": 448,
                "province": "Sulawesi Selatan",
                "province_id": "28",
                "type": "Kabupaten",
                "city_name": "Takalar",
                "postal_code": 92212
            },
            {
                "city_id": 451,
                "province": "Sulawesi Selatan",
                "province_id": "28",
                "type": "Kabupaten",
                "city_name": "Tana Toraja",
                "postal_code": 91819
            },
            {
                "city_id": 486,
                "province": "Sulawesi Selatan",
                "province_id": "28",
                "type": "Kabupaten",
                "city_name": "Toraja Utara",
                "postal_code": 91831
            },
            {
                "city_id": 493,
                "province": "Sulawesi Selatan",
                "province_id": "28",
                "type": "Kabupaten",
                "city_name": "Wajo",
                "postal_code": 90911
            }
        ]
    },
    {
        "province_id": 29,
        "province": "Sulawesi Tengah",
        "city": [
            {
                "city_id": 25,
                "province": "Sulawesi Tengah",
                "province_id": "29",
                "type": "Kabupaten",
                "city_name": "Banggai",
                "postal_code": 94711
            },
            {
                "city_id": 26,
                "province": "Sulawesi Tengah",
                "province_id": "29",
                "type": "Kabupaten",
                "city_name": "Banggai Kepulauan",
                "postal_code": 94881
            },
            {
                "city_id": 98,
                "province": "Sulawesi Tengah",
                "province_id": "29",
                "type": "Kabupaten",
                "city_name": "Buol",
                "postal_code": 94564
            },
            {
                "city_id": 119,
                "province": "Sulawesi Tengah",
                "province_id": "29",
                "type": "Kabupaten",
                "city_name": "Donggala",
                "postal_code": 94341
            },
            {
                "city_id": 291,
                "province": "Sulawesi Tengah",
                "province_id": "29",
                "type": "Kabupaten",
                "city_name": "Morowali",
                "postal_code": 94911
            },
            {
                "city_id": 329,
                "province": "Sulawesi Tengah",
                "province_id": "29",
                "type": "Kota",
                "city_name": "Palu",
                "postal_code": 94111
            },
            {
                "city_id": 338,
                "province": "Sulawesi Tengah",
                "province_id": "29",
                "type": "Kabupaten",
                "city_name": "Parigi Moutong",
                "postal_code": 94411
            },
            {
                "city_id": 366,
                "province": "Sulawesi Tengah",
                "province_id": "29",
                "type": "Kabupaten",
                "city_name": "Poso",
                "postal_code": 94615
            },
            {
                "city_id": 410,
                "province": "Sulawesi Tengah",
                "province_id": "29",
                "type": "Kabupaten",
                "city_name": "Sigi",
                "postal_code": 94364
            },
            {
                "city_id": 482,
                "province": "Sulawesi Tengah",
                "province_id": "29",
                "type": "Kabupaten",
                "city_name": "Tojo Una-Una",
                "postal_code": 94683
            },
            {
                "city_id": 483,
                "province": "Sulawesi Tengah",
                "province_id": "29",
                "type": "Kabupaten",
                "city_name": "Toli-Toli",
                "postal_code": 94542
            }
        ]
    },
    {
        "province_id": 30,
        "province": "Sulawesi Tenggara",
        "city": [
            {
                "city_id": 53,
                "province": "Sulawesi Tenggara",
                "province_id": "30",
                "type": "Kota",
                "city_name": "Bau-Bau",
                "postal_code": 93719
            },
            {
                "city_id": 85,
                "province": "Sulawesi Tenggara",
                "province_id": "30",
                "type": "Kabupaten",
                "city_name": "Bombana",
                "postal_code": 93771
            },
            {
                "city_id": 101,
                "province": "Sulawesi Tenggara",
                "province_id": "30",
                "type": "Kabupaten",
                "city_name": "Buton",
                "postal_code": 93754
            },
            {
                "city_id": 102,
                "province": "Sulawesi Tenggara",
                "province_id": "30",
                "type": "Kabupaten",
                "city_name": "Buton Utara",
                "postal_code": 93745
            },
            {
                "city_id": 182,
                "province": "Sulawesi Tenggara",
                "province_id": "30",
                "type": "Kota",
                "city_name": "Kendari",
                "postal_code": 93126
            },
            {
                "city_id": 198,
                "province": "Sulawesi Tenggara",
                "province_id": "30",
                "type": "Kabupaten",
                "city_name": "Kolaka",
                "postal_code": 93511
            },
            {
                "city_id": 199,
                "province": "Sulawesi Tenggara",
                "province_id": "30",
                "type": "Kabupaten",
                "city_name": "Kolaka Utara",
                "postal_code": 93911
            },
            {
                "city_id": 200,
                "province": "Sulawesi Tenggara",
                "province_id": "30",
                "type": "Kabupaten",
                "city_name": "Konawe",
                "postal_code": 93411
            },
            {
                "city_id": 201,
                "province": "Sulawesi Tenggara",
                "province_id": "30",
                "type": "Kabupaten",
                "city_name": "Konawe Selatan",
                "postal_code": 93811
            },
            {
                "city_id": 202,
                "province": "Sulawesi Tenggara",
                "province_id": "30",
                "type": "Kabupaten",
                "city_name": "Konawe Utara",
                "postal_code": 93311
            },
            {
                "city_id": 295,
                "province": "Sulawesi Tenggara",
                "province_id": "30",
                "type": "Kabupaten",
                "city_name": "Muna",
                "postal_code": 93611
            },
            {
                "city_id": 494,
                "province": "Sulawesi Tenggara",
                "province_id": "30",
                "type": "Kabupaten",
                "city_name": "Wakatobi",
                "postal_code": 93791
            }
        ]
    },
    {
        "province_id": 31,
        "province": "Sulawesi Utara",
        "city": [
            {
                "city_id": 73,
                "province": "Sulawesi Utara",
                "province_id": "31",
                "type": "Kota",
                "city_name": "Bitung",
                "postal_code": 95512
            },
            {
                "city_id": 81,
                "province": "Sulawesi Utara",
                "province_id": "31",
                "type": "Kabupaten",
                "city_name": "Bolaang Mongondow (Bolmong)",
                "postal_code": 95755
            },
            {
                "city_id": 82,
                "province": "Sulawesi Utara",
                "province_id": "31",
                "type": "Kabupaten",
                "city_name": "Bolaang Mongondow Selatan",
                "postal_code": 95774
            },
            {
                "city_id": 83,
                "province": "Sulawesi Utara",
                "province_id": "31",
                "type": "Kabupaten",
                "city_name": "Bolaang Mongondow Timur",
                "postal_code": 95783
            },
            {
                "city_id": 84,
                "province": "Sulawesi Utara",
                "province_id": "31",
                "type": "Kabupaten",
                "city_name": "Bolaang Mongondow Utara",
                "postal_code": 95765
            },
            {
                "city_id": 188,
                "province": "Sulawesi Utara",
                "province_id": "31",
                "type": "Kabupaten",
                "city_name": "Kepulauan Sangihe",
                "postal_code": 95819
            },
            {
                "city_id": 190,
                "province": "Sulawesi Utara",
                "province_id": "31",
                "type": "Kabupaten",
                "city_name": "Kepulauan Siau Tagulandang Biaro (Sitaro)",
                "postal_code": 95862
            },
            {
                "city_id": 192,
                "province": "Sulawesi Utara",
                "province_id": "31",
                "type": "Kabupaten",
                "city_name": "Kepulauan Talaud",
                "postal_code": 95885
            },
            {
                "city_id": 204,
                "province": "Sulawesi Utara",
                "province_id": "31",
                "type": "Kota",
                "city_name": "Kotamobagu",
                "postal_code": 95711
            },
            {
                "city_id": 267,
                "province": "Sulawesi Utara",
                "province_id": "31",
                "type": "Kota",
                "city_name": "Manado",
                "postal_code": 95247
            },
            {
                "city_id": 285,
                "province": "Sulawesi Utara",
                "province_id": "31",
                "type": "Kabupaten",
                "city_name": "Minahasa",
                "postal_code": 95614
            },
            {
                "city_id": 286,
                "province": "Sulawesi Utara",
                "province_id": "31",
                "type": "Kabupaten",
                "city_name": "Minahasa Selatan",
                "postal_code": 95914
            },
            {
                "city_id": 287,
                "province": "Sulawesi Utara",
                "province_id": "31",
                "type": "Kabupaten",
                "city_name": "Minahasa Tenggara",
                "postal_code": 95995
            },
            {
                "city_id": 288,
                "province": "Sulawesi Utara",
                "province_id": "31",
                "type": "Kabupaten",
                "city_name": "Minahasa Utara",
                "postal_code": 95316
            },
            {
                "city_id": 485,
                "province": "Sulawesi Utara",
                "province_id": "31",
                "type": "Kota",
                "city_name": "Tomohon",
                "postal_code": 95416
            }
        ]
    },
    {
        "province_id": 32,
        "province": "Sumatera Barat",
        "city": [
            {
                "city_id": 12,
                "province": "Sumatera Barat",
                "province_id": "32",
                "type": "Kabupaten",
                "city_name": "Agam",
                "postal_code": 26411
            },
            {
                "city_id": 93,
                "province": "Sumatera Barat",
                "province_id": "32",
                "type": "Kota",
                "city_name": "Bukittinggi",
                "postal_code": 26115
            },
            {
                "city_id": 116,
                "province": "Sumatera Barat",
                "province_id": "32",
                "type": "Kabupaten",
                "city_name": "Dharmasraya",
                "postal_code": 27612
            },
            {
                "city_id": 186,
                "province": "Sumatera Barat",
                "province_id": "32",
                "type": "Kabupaten",
                "city_name": "Kepulauan Mentawai",
                "postal_code": 25771
            },
            {
                "city_id": 236,
                "province": "Sumatera Barat",
                "province_id": "32",
                "type": "Kabupaten",
                "city_name": "Lima Puluh Koto/Kota",
                "postal_code": 26671
            },
            {
                "city_id": 318,
                "province": "Sumatera Barat",
                "province_id": "32",
                "type": "Kota",
                "city_name": "Padang",
                "postal_code": 25112
            },
            {
                "city_id": 321,
                "province": "Sumatera Barat",
                "province_id": "32",
                "type": "Kota",
                "city_name": "Padang Panjang",
                "postal_code": 27122
            },
            {
                "city_id": 322,
                "province": "Sumatera Barat",
                "province_id": "32",
                "type": "Kabupaten",
                "city_name": "Padang Pariaman",
                "postal_code": 25583
            },
            {
                "city_id": 337,
                "province": "Sumatera Barat",
                "province_id": "32",
                "type": "Kota",
                "city_name": "Pariaman",
                "postal_code": 25511
            },
            {
                "city_id": 339,
                "province": "Sumatera Barat",
                "province_id": "32",
                "type": "Kabupaten",
                "city_name": "Pasaman",
                "postal_code": 26318
            },
            {
                "city_id": 340,
                "province": "Sumatera Barat",
                "province_id": "32",
                "type": "Kabupaten",
                "city_name": "Pasaman Barat",
                "postal_code": 26511
            },
            {
                "city_id": 345,
                "province": "Sumatera Barat",
                "province_id": "32",
                "type": "Kota",
                "city_name": "Payakumbuh",
                "postal_code": 26213
            },
            {
                "city_id": 357,
                "province": "Sumatera Barat",
                "province_id": "32",
                "type": "Kabupaten",
                "city_name": "Pesisir Selatan",
                "postal_code": 25611
            },
            {
                "city_id": 394,
                "province": "Sumatera Barat",
                "province_id": "32",
                "type": "Kota",
                "city_name": "Sawah Lunto",
                "postal_code": 27416
            },
            {
                "city_id": 411,
                "province": "Sumatera Barat",
                "province_id": "32",
                "type": "Kabupaten",
                "city_name": "Sijunjung (Sawah Lunto Sijunjung)",
                "postal_code": 27511
            },
            {
                "city_id": 420,
                "province": "Sumatera Barat",
                "province_id": "32",
                "type": "Kabupaten",
                "city_name": "Solok",
                "postal_code": 27365
            },
            {
                "city_id": 421,
                "province": "Sumatera Barat",
                "province_id": "32",
                "type": "Kota",
                "city_name": "Solok",
                "postal_code": 27315
            },
            {
                "city_id": 422,
                "province": "Sumatera Barat",
                "province_id": "32",
                "type": "Kabupaten",
                "city_name": "Solok Selatan",
                "postal_code": 27779
            },
            {
                "city_id": 453,
                "province": "Sumatera Barat",
                "province_id": "32",
                "type": "Kabupaten",
                "city_name": "Tanah Datar",
                "postal_code": 27211
            }
        ]
    },
    {
        "province_id": 33,
        "province": "Sumatera Selatan",
        "city": [
            {
                "city_id": 40,
                "province": "Sumatera Selatan",
                "province_id": "33",
                "type": "Kabupaten",
                "city_name": "Banyuasin",
                "postal_code": 30911
            },
            {
                "city_id": 121,
                "province": "Sumatera Selatan",
                "province_id": "33",
                "type": "Kabupaten",
                "city_name": "Empat Lawang",
                "postal_code": 31811
            },
            {
                "city_id": 220,
                "province": "Sumatera Selatan",
                "province_id": "33",
                "type": "Kabupaten",
                "city_name": "Lahat",
                "postal_code": 31419
            },
            {
                "city_id": 242,
                "province": "Sumatera Selatan",
                "province_id": "33",
                "type": "Kota",
                "city_name": "Lubuk Linggau",
                "postal_code": 31614
            },
            {
                "city_id": 292,
                "province": "Sumatera Selatan",
                "province_id": "33",
                "type": "Kabupaten",
                "city_name": "Muara Enim",
                "postal_code": 31315
            },
            {
                "city_id": 297,
                "province": "Sumatera Selatan",
                "province_id": "33",
                "type": "Kabupaten",
                "city_name": "Musi Banyuasin",
                "postal_code": 30719
            },
            {
                "city_id": 298,
                "province": "Sumatera Selatan",
                "province_id": "33",
                "type": "Kabupaten",
                "city_name": "Musi Rawas",
                "postal_code": 31661
            },
            {
                "city_id": 312,
                "province": "Sumatera Selatan",
                "province_id": "33",
                "type": "Kabupaten",
                "city_name": "Ogan Ilir",
                "postal_code": 30811
            },
            {
                "city_id": 313,
                "province": "Sumatera Selatan",
                "province_id": "33",
                "type": "Kabupaten",
                "city_name": "Ogan Komering Ilir",
                "postal_code": 30618
            },
            {
                "city_id": 314,
                "province": "Sumatera Selatan",
                "province_id": "33",
                "type": "Kabupaten",
                "city_name": "Ogan Komering Ulu",
                "postal_code": 32112
            },
            {
                "city_id": 315,
                "province": "Sumatera Selatan",
                "province_id": "33",
                "type": "Kabupaten",
                "city_name": "Ogan Komering Ulu Selatan",
                "postal_code": 32211
            },
            {
                "city_id": 316,
                "province": "Sumatera Selatan",
                "province_id": "33",
                "type": "Kabupaten",
                "city_name": "Ogan Komering Ulu Timur",
                "postal_code": 32312
            },
            {
                "city_id": 324,
                "province": "Sumatera Selatan",
                "province_id": "33",
                "type": "Kota",
                "city_name": "Pagar Alam",
                "postal_code": 31512
            },
            {
                "city_id": 327,
                "province": "Sumatera Selatan",
                "province_id": "33",
                "type": "Kota",
                "city_name": "Palembang",
                "postal_code": 30111
            },
            {
                "city_id": 367,
                "province": "Sumatera Selatan",
                "province_id": "33",
                "type": "Kota",
                "city_name": "Prabumulih",
                "postal_code": 31121
            }
        ]
    },
    {
        "province_id": 34,
        "province": "Sumatera Utara",
        "city": [
            {
                "city_id": 15,
                "province": "Sumatera Utara",
                "province_id": "34",
                "type": "Kabupaten",
                "city_name": "Asahan",
                "postal_code": 21214
            },
            {
                "city_id": 52,
                "province": "Sumatera Utara",
                "province_id": "34",
                "type": "Kabupaten",
                "city_name": "Batu Bara",
                "postal_code": 21655
            },
            {
                "city_id": 70,
                "province": "Sumatera Utara",
                "province_id": "34",
                "type": "Kota",
                "city_name": "Binjai",
                "postal_code": 20712
            },
            {
                "city_id": 110,
                "province": "Sumatera Utara",
                "province_id": "34",
                "type": "Kabupaten",
                "city_name": "Dairi",
                "postal_code": 22211
            },
            {
                "city_id": 112,
                "province": "Sumatera Utara",
                "province_id": "34",
                "type": "Kabupaten",
                "city_name": "Deli Serdang",
                "postal_code": 20511
            },
            {
                "city_id": 137,
                "province": "Sumatera Utara",
                "province_id": "34",
                "type": "Kota",
                "city_name": "Gunungsitoli",
                "postal_code": 22813
            },
            {
                "city_id": 146,
                "province": "Sumatera Utara",
                "province_id": "34",
                "type": "Kabupaten",
                "city_name": "Humbang Hasundutan",
                "postal_code": 22457
            },
            {
                "city_id": 173,
                "province": "Sumatera Utara",
                "province_id": "34",
                "type": "Kabupaten",
                "city_name": "Karo",
                "postal_code": 22119
            },
            {
                "city_id": 217,
                "province": "Sumatera Utara",
                "province_id": "34",
                "type": "Kabupaten",
                "city_name": "Labuhan Batu",
                "postal_code": 21412
            },
            {
                "city_id": 218,
                "province": "Sumatera Utara",
                "province_id": "34",
                "type": "Kabupaten",
                "city_name": "Labuhan Batu Selatan",
                "postal_code": 21511
            },
            {
                "city_id": 219,
                "province": "Sumatera Utara",
                "province_id": "34",
                "type": "Kabupaten",
                "city_name": "Labuhan Batu Utara",
                "postal_code": 21711
            },
            {
                "city_id": 229,
                "province": "Sumatera Utara",
                "province_id": "34",
                "type": "Kabupaten",
                "city_name": "Langkat",
                "postal_code": 20811
            },
            {
                "city_id": 268,
                "province": "Sumatera Utara",
                "province_id": "34",
                "type": "Kabupaten",
                "city_name": "Mandailing Natal",
                "postal_code": 22916
            },
            {
                "city_id": 278,
                "province": "Sumatera Utara",
                "province_id": "34",
                "type": "Kota",
                "city_name": "Medan",
                "postal_code": 20228
            },
            {
                "city_id": 307,
                "province": "Sumatera Utara",
                "province_id": "34",
                "type": "Kabupaten",
                "city_name": "Nias",
                "postal_code": 22876
            },
            {
                "city_id": 308,
                "province": "Sumatera Utara",
                "province_id": "34",
                "type": "Kabupaten",
                "city_name": "Nias Barat",
                "postal_code": 22895
            },
            {
                "city_id": 309,
                "province": "Sumatera Utara",
                "province_id": "34",
                "type": "Kabupaten",
                "city_name": "Nias Selatan",
                "postal_code": 22865
            },
            {
                "city_id": 310,
                "province": "Sumatera Utara",
                "province_id": "34",
                "type": "Kabupaten",
                "city_name": "Nias Utara",
                "postal_code": 22856
            },
            {
                "city_id": 319,
                "province": "Sumatera Utara",
                "province_id": "34",
                "type": "Kabupaten",
                "city_name": "Padang Lawas",
                "postal_code": 22763
            },
            {
                "city_id": 320,
                "province": "Sumatera Utara",
                "province_id": "34",
                "type": "Kabupaten",
                "city_name": "Padang Lawas Utara",
                "postal_code": 22753
            },
            {
                "city_id": 323,
                "province": "Sumatera Utara",
                "province_id": "34",
                "type": "Kota",
                "city_name": "Padang Sidempuan",
                "postal_code": 22727
            },
            {
                "city_id": 325,
                "province": "Sumatera Utara",
                "province_id": "34",
                "type": "Kabupaten",
                "city_name": "Pakpak Bharat",
                "postal_code": 22272
            },
            {
                "city_id": 353,
                "province": "Sumatera Utara",
                "province_id": "34",
                "type": "Kota",
                "city_name": "Pematang Siantar",
                "postal_code": 21126
            },
            {
                "city_id": 389,
                "province": "Sumatera Utara",
                "province_id": "34",
                "type": "Kabupaten",
                "city_name": "Samosir",
                "postal_code": 22392
            },
            {
                "city_id": 404,
                "province": "Sumatera Utara",
                "province_id": "34",
                "type": "Kabupaten",
                "city_name": "Serdang Bedagai",
                "postal_code": 20915
            },
            {
                "city_id": 407,
                "province": "Sumatera Utara",
                "province_id": "34",
                "type": "Kota",
                "city_name": "Sibolga",
                "postal_code": 22522
            },
            {
                "city_id": 413,
                "province": "Sumatera Utara",
                "province_id": "34",
                "type": "Kabupaten",
                "city_name": "Simalungun",
                "postal_code": 21162
            },
            {
                "city_id": 459,
                "province": "Sumatera Utara",
                "province_id": "34",
                "type": "Kota",
                "city_name": "Tanjung Balai",
                "postal_code": 21321
            },
            {
                "city_id": 463,
                "province": "Sumatera Utara",
                "province_id": "34",
                "type": "Kabupaten",
                "city_name": "Tapanuli Selatan",
                "postal_code": 22742
            },
            {
                "city_id": 464,
                "province": "Sumatera Utara",
                "province_id": "34",
                "type": "Kabupaten",
                "city_name": "Tapanuli Tengah",
                "postal_code": 22611
            },
            {
                "city_id": 465,
                "province": "Sumatera Utara",
                "province_id": "34",
                "type": "Kabupaten",
                "city_name": "Tapanuli Utara",
                "postal_code": 22414
            },
            {
                "city_id": 470,
                "province": "Sumatera Utara",
                "province_id": "34",
                "type": "Kota",
                "city_name": "Tebing Tinggi",
                "postal_code": 20632
            },
            {
                "city_id": 481,
                "province": "Sumatera Utara",
                "province_id": "34",
                "type": "Kabupaten",
                "city_name": "Toba Samosir",
                "postal_code": 22316
            }
        ]
    }
]